EUTELSAT 33F            
1 29270U 06032A   26168.83207742  .00000149  00000+0  00000+0 0  9999
2 29270   1.6641  82.2364 0003735   2.2988 154.1725  1.00270760 47315
JCSAT-3A                
1 29272U 06033A   26168.85085740 -.00000350  00000+0  00000+0 0  9991
2 29272   0.0154 314.2669 0002166 145.2304 240.9055  1.00271159 47742
KOREASAT 5 (MUGUNGWHA 5)
1 29349U 06034A   26168.84791072 -.00000364  00000+0  00000+0 0  9993
2 29349   1.7878  82.9768 0001511  52.9852 188.4320  1.00269386 41320
DIRECTV 9S              
1 29494U 06043A   26168.66286757 -.00000119  00000+0  00000+0 0  9991
2 29494   2.4228  80.8962 0004914  12.9614 309.4916  1.00270853 51387
OPTUS D1                
1 29495U 06043B   26168.78418082 -.00000190  00000+0  00000+0 0  9992
2 29495   3.0371  79.6489 0003376 358.9728 261.6969  1.00271525 72123
BADR-4                  
1 29526U 06051A   26168.83233742  .00000149  00000+0  00000+0 0  9993
2 29526   2.0073  81.1139 0004752 356.3798 162.6576  1.00271357 51274
WILDBLUE-1              
1 29643U 06054A   26168.58964810 -.00000055  00000+0  00000+0 0  9992
2 29643   2.8049  80.4770 0001298   6.5344 279.8901  1.00270755 53794
SKYNET 5A               
1 30794U 07007B   26168.77308744 -.00000279  00000+0  00000+0 0  9997
2 30794   5.3018  73.7348 0004076  19.6252 186.1637  1.00268932 70703
ANIK F3                 
1 31102U 07009A   26168.73070358 -.00000007  00000+0  00000+0 0  9995
2 31102   1.1997  83.8409 0002466   1.5538 324.9012  1.00272216 46561
ASTRA 1L                
1 31306U 07016A   26168.74942366 -.00000190  00000+0  00000+0 0  9990
2 31306   1.3240  81.5733 0005191  12.0057  57.7350  1.00271126 44996
GALAXY 17 (G-17)        
1 31307U 07016B   26168.80870762 -.00000213  00000+0  00000+0 0  9994
2 31307   2.9745  79.8932 0004605  17.8418  14.4431  1.00271782 69814
INTELSAT 11 (IS-11)     
1 32253U 07044B   26168.77863413 -.00000235  00000+0  00000+0 0  9991
2 32253   3.5678  78.6617 0002376  89.6249 141.3192  0.99050558 68452
WGS F1 (USA 195)        
1 32258U 07046A   26168.81711432 -.00000273  00000+0  00000+0 0  9998
2 32258   0.0405  87.6976 0000105  15.4280  54.5929  1.00268908 52342
SKYNET 5B               
1 32294U 07056B   26168.80857536  .00000132  00000+0  00000+0 0  9997
2 32294   5.2537  73.4990 0003955   7.3642 141.4005  1.00275046 68206
ASTRA 4A                
1 32299U 07057A   26168.68392766  .00000027  00000+0  00000+0 0  9991
2 32299   0.0154  18.5793 0002153  71.0270  67.3354  1.00271849 51655
HORIZONS-2              
1 32388U 07063B   26168.81087428 -.00000260  00000+0  00000+0 0  9998
2 32388   2.6045  80.6186 0003775   2.8489  40.6863  1.00268289 67821
THURAYA-3               
1 32404U 08001A   26168.69791791 -.00000051  00000+0  00000+0 0  9999
2 32404   5.9907  35.8047 0001592 157.3474  39.5710  1.00007413 67497
THOR 5                  
1 32487U 08006A   26168.82540406 -.00000015  00000+0  00000+0 0  9995
2 32487   0.0163 296.1442 0002348 157.1429 109.1695  1.00271392 67324
AMC-14                  
1 32708U 08011A   26168.12569608 -.00000060  00000+0  00000+0 0  9995
2 32708  24.0043  20.5198 0045682   7.1773 348.5064  1.00354940 68167
DIRECTV 11              
1 32729U 08013A   26168.59198813 -.00000130  00000+0  00000+0 0  9995
2 32729   0.0106 249.6020 0000252 114.3635  15.8127  1.00268228 45593
ICO G1                  
1 32763U 08016A   26168.32405734 -.00000179  00000+0  00000+0 0  9993
2 32763   5.5310  36.1349 0002328  35.8405 217.4072  1.00271360 66547
VINASAT-1               
1 32767U 08018A   26168.85163740 -.00000334  00000+0  00000+0 0  9998
2 32767   0.0221 305.9796 0001195 152.1445 246.5081  1.00269606 66591
STAR ONE C2             
1 32768U 08018B   26168.81260764 -.00000282  00000+0  00000+0 0  9991
2 32768   1.2435  82.4566 0002571  14.5074  36.6168  1.00268750 66663
AMOS-3                  
1 32794U 08022A   26168.83329075  .00000134  00000+0  00000+0 0  9993
2 32794   0.4578  86.2106 0002019  71.9128  87.3123  1.00477007 82341
GALAXY 18 (G-18)        
1 32951U 08024A   26168.65862088  .00000020  00000+0  00000+0 0  9990
2 32951   0.0123  45.8146 0002742  41.3276 292.8739  1.00272522 45857
ZHONGXING-9             
1 33051U 08028A   26168.88566646 -.00000254  00000+0  00000+0 0  9992
2 33051   0.7708  85.3118 0003849 342.2258 249.8078  1.00269258 66049
SKYNET 5C               
1 33055U 08030A   26168.67942097 -.00000147  00000+0  00000+0 0  9995
2 33055   3.7909  77.0348 0003931  17.2469  38.4459  1.00271600 65966
TURKSAT 3A              
1 33056U 08030B   26168.83381078  .00000141  00000+0  00000+0 0  9993
2 33056   0.0585  79.8458 0005059 351.2652 177.1133  1.00270851 52364
INTELSAT 25 (IS-25)     
1 33153U 08034A   26168.84903737 -.00000207  00000+0  00000+0 0  9992
2 33153   2.7124  80.3640 0003371  60.5162 189.5770  0.99034489 65697
ECHOSTAR 11             
1 33207U 08035A   26168.58990810 -.00000063  00000+0  00000+0 0  9992
2 33207   1.0070  84.1701 0002535 339.4972 304.7491  1.00270316 51215
SUPERBIRD-C2            
1 33274U 08038A   26168.85241741 -.00000313  00000+0  00000+0 0  9999
2 33274   2.3635  81.2532 0005933  25.3516 242.3546  1.00272731105738
INMARSAT 4-F3           
1 33278U 08039A   26168.59224812 -.00000147  00000+0  00000+0 0  9990
2 33278   4.2925  31.6173 0002845  59.3007 290.1381  1.00271773 46542
