OBJECT_NAME,OBJECT_ID,EPOCH,MEAN_MOTION,ECCENTRICITY,INCLINATION,RA_OF_ASC_NODE,ARG_OF_PERICENTER,MEAN_ANOMALY,EPHEMERIS_TYPE,CLASSIFICATION_TYPE,NORAD_CAT_ID,ELEMENT_SET_NO,REV_AT_EPOCH,BSTAR,MEAN_MOTION_DOT,MEAN_MOTION_DDOT
EUTELSAT 33F,2006-032A,2026-06-17T19:58:11.489088,1.00270760,.0003735,1.6641,82.2364,2.2988,154.1725,0,U,29270,999,4731,0,.149E-5,0
JCSAT-3A,2006-033A,2026-06-17T20:25:14.079360,1.00271159,.0002166,0.0154,314.2669,145.2304,240.9055,0,U,29272,999,4774,0,-.35E-5,0
KOREASAT 5 (MUGUNGWHA 5),2006-034A,2026-06-17T20:20:59.486208,1.00269386,.0001511,1.7878,82.9768,52.9852,188.4320,0,U,29349,999,4132,0,-.364E-5,0
DIRECTV 9S,2006-043A,2026-06-17T15:54:31.758048,1.00270853,.0004914,2.4228,80.8962,12.9614,309.4916,0,U,29494,999,5138,0,-.119E-5,0
OPTUS D1,2006-043B,2026-06-17T18:49:13.222848,1.00271525,.0003376,3.0371,79.6489,358.9728,261.6969,0,U,29495,999,7212,0,-.19E-5,0
BADR-4,2006-051A,2026-06-17T19:58:33.953088,1.00271357,.0004752,2.0073,81.1139,356.3798,162.6576,0,U,29526,999,5127,0,.149E-5,0
WILDBLUE-1,2006-054A,2026-06-17T14:09:05.595840,1.00270755,.0001298,2.8049,80.4770,6.5344,279.8901,0,U,29643,999,5379,0,-.55E-6,0
SKYNET 5A,2007-007B,2026-06-17T18:33:14.754816,1.00268932,.0004076,5.3018,73.7348,19.6252,186.1637,0,U,30794,999,7070,0,-.279E-5,0
ANIK F3,2007-009A,2026-06-17T17:32:12.789312,1.00272216,.0002466,1.1997,83.8409,1.5538,324.9012,0,U,31102,999,4656,0,-.7E-7,0
ASTRA 1L,2007-016A,2026-06-17T17:59:10.204224,1.00271126,.0005191,1.3240,81.5733,12.0057,57.7350,0,U,31306,999,4499,0,-.19E-5,0
GALAXY 17 (G-17),2007-016B,2026-06-17T19:24:32.338368,1.00271782,.0004605,2.9745,79.8932,17.8418,14.4431,0,U,31307,999,6981,0,-.213E-5,0
INTELSAT 11 (IS-11),2007-044B,2026-06-17T18:41:13.988832,0.99050558,.0002376,3.5678,78.6617,89.6249,141.3192,0,U,32253,999,6845,0,-.235E-5,0
WGS F1 (USA 195),2007-046A,2026-06-17T19:36:38.677248,1.00268908,.0000105,0.0405,87.6976,15.4280,54.5929,0,U,32258,999,5234,0,-.273E-5,0
SKYNET 5B,2007-056B,2026-06-17T19:24:20.911104,1.00275046,.0003955,5.2537,73.4990,7.3642,141.4005,0,U,32294,999,6820,0,.132E-5,0
ASTRA 4A,2007-057A,2026-06-17T16:24:51.349824,1.00271849,.0002153,0.0154,18.5793,71.0270,67.3354,0,U,32299,999,5165,0,.27E-6,0
HORIZONS-2,2007-063B,2026-06-17T19:27:39.537792,1.00268289,.0003775,2.6045,80.6186,2.8489,40.6863,0,U,32388,999,6782,0,-.26E-5,0
THURAYA-3,2008-001A,2026-06-17T16:45:00.107424,1.00007413,.0001592,5.9907,35.8047,157.3474,39.5710,0,U,32404,999,6749,0,-.51E-6,0
THOR 5,2008-006A,2026-06-17T19:48:34.910784,1.00271392,.0002348,0.0163,296.1442,157.1429,109.1695,0,U,32487,999,6732,0,-.15E-6,0
AMC-14,2008-011A,2026-06-17T03:01:00.141312,1.00354940,.0045682,24.0043,20.5198,7.1773,348.5064,0,U,32708,999,6816,0,-.6E-6,0
DIRECTV 11,2008-013A,2026-06-17T14:12:27.774432,1.00268228,.0000252,0.0106,249.6020,114.3635,15.8127,0,U,32729,999,4559,0,-.13E-5,0
ICO G1,2008-016A,2026-06-17T07:46:38.554176,1.00271360,.0002328,5.5310,36.1349,35.8405,217.4072,0,U,32763,999,6654,0,-.179E-5,0
VINASAT-1,2008-018A,2026-06-17T20:26:21.471360,1.00269606,.0001195,0.0221,305.9796,152.1445,246.5081,0,U,32767,999,6659,0,-.334E-5,0
STAR ONE C2,2008-018B,2026-06-17T19:30:09.300096,1.00268750,.0002571,1.2435,82.4566,14.5074,36.6168,0,U,32768,999,6666,0,-.282E-5,0
AMOS-3,2008-022A,2026-06-17T19:59:56.320800,1.00477007,.0002019,0.4578,86.2106,71.9128,87.3123,0,U,32794,999,8234,0,.134E-5,0
GALAXY 18 (G-18),2008-024A,2026-06-17T15:48:24.844032,1.00272522,.0002742,0.0123,45.8146,41.3276,292.8739,0,U,32951,999,4585,0,.2E-6,0
ZHONGXING-9,2008-028A,2026-06-17T21:15:21.582144,1.00269258,.0003849,0.7708,85.3118,342.2258,249.8078,0,U,33051,999,6604,0,-.254E-5,0
SKYNET 5C,2008-030A,2026-06-17T16:18:21.971808,1.00271600,.0003931,3.7909,77.0348,17.2469,38.4459,0,U,33055,999,6596,0,-.147E-5,0
TURKSAT 3A,2008-030B,2026-06-17T20:00:41.251392,1.00270851,.0005059,0.0585,79.8458,351.2652,177.1133,0,U,33056,999,5236,0,.141E-5,0
INTELSAT 25 (IS-25),2008-034A,2026-06-17T20:22:36.828768,0.99034489,.0003371,2.7124,80.3640,60.5162,189.5770,0,U,33153,999,6569,0,-.207E-5,0
ECHOSTAR 11,2008-035A,2026-06-17T14:09:28.059840,1.00270316,.0002535,1.0070,84.1701,339.4972,304.7491,0,U,33207,999,5121,0,-.63E-6,0
SUPERBIRD-C2,2008-038A,2026-06-17T20:27:28.864224,1.00272731,.0005933,2.3635,81.2532,25.3516,242.3546,0,U,33274,999,10573,0,-.313E-5,0
INMARSAT 4-F3,2008-039A,2026-06-17T14:12:50.237568,1.00271773,.0002845,4.2925,31.6173,59.3007,290.1381,0,U,33278,999,4654,0,-.147E-5,0
